<!DOCTYPE html>
<html lang="ko">
<head>
  <meta charset="UTF-8">
  <meta name="viewport" content="width=device-width, initial-scale=1.0">
  <title>5장: 위성 궤도 역학 - WIA-SPACE-002</title>
  <link rel="stylesheet" href="styles.css">
</head>
<body>
  <header>
    <div class="standard-badge">WIA-SPACE-002 v1.0</div>
    <h1>5장</h1>
    <p class="subtitle">위성 궤도 역학</p>
    <p class="subtitle">케플러 법칙, 궤도 유지</p>
  </header>

  <main>
    <h2>5.1 궤도 역학의 기초</h2>

    <p>위성 궤도 역학은 중력과 운동의 법칙으로 위성의 움직임을 설명하는 학문입니다. 뉴턴의 만유인력 법칙과 케플러의 행성 운동 법칙이 기초가 됩니다.</p>

    <div class="info-box">
      <h4>🌍 만유인력의 법칙</h4>
      <p>뉴턴의 만유인력 법칙은 두 물체 사이의 중력을 설명합니다:</p>
      <div class="code-box">
F = G × (M × m) / r²

여기서:
- F: 중력 (N)
- G: 중력 상수 (6.674×10⁻¹¹ N·m²/kg²)
- M: 지구 질량 (5.972×10²⁴ kg)
- m: 위성 질량
- r: 지구 중심으로부터 거리
      </div>
    </div>

    <h3>원심력과 중력의 균형</h3>

    <p>위성이 안정적인 궤도를 유지하려면 중력과 원심력이 균형을 이루어야 합니다:</p>

    <div class="code-box">
중력 = 원심력
G×M×m/r² = m×v²/r

정리하면 궤도 속도:
v = √(G×M/r)

예시: 400km 고도 (r = 6,771 km)
v = √(6.674×10⁻¹¹ × 5.972×10²⁴ / 6,771,000)
v ≈ 7,670 m/s ≈ 7.67 km/s
    </div>

    <p>이 속도보다 빠르면 위성은 더 높은 궤도로 올라가고, 느리면 떨어집니다.</p>

    <h2>5.2 케플러의 행성 운동 법칙</h2>

    <p>케플러의 3가지 법칙은 행성과 위성의 궤도 운동을 정확하게 설명합니다.</p>

    <h3>제1법칙: 타원 궤도의 법칙</h3>

    <p>모든 행성(위성)의 궤도는 타원이며, 지구(중심 천체)는 타원의 한 초점에 위치합니다.</p>

    <div class="info-box">
      <h4>타원 궤도의 요소</h4>
      <ul>
        <li><strong>장반경 (a):</strong> 타원의 긴 반지름</li>
        <li><strong>단반경 (b):</strong> 타원의 짧은 반지름</li>
        <li><strong>이심률 (e):</strong> 타원의 찌그러진 정도 (0 = 원, 1에 가까울수록 길쭉)</li>
        <li><strong>근지점 (perigee):</strong> 지구에 가장 가까운 점</li>
        <li><strong>원지점 (apogee):</strong> 지구에서 가장 먼 점</li>
      </ul>
      <div class="code-box">
이심률: e = √(1 - b²/a²)
근지점 거리: r_p = a(1 - e)
원지점 거리: r_a = a(1 + e)
      </div>
    </div>

    <p>원궤도는 이심률이 0인 특수한 타원입니다. 대부분의 위성은 완벽한 원궤도가 아닌 약간 타원형 궤도를 가집니다.</p>

    <h3>제2법칙: 면적 속도 일정의 법칙</h3>

    <p>행성(위성)과 태양(지구)을 잇는 선이 같은 시간 동안 쓸고 지나가는 면적은 항상 같습니다.</p>

    <div class="info-box">
      <h4>의미</h4>
      <p>위성은 근지점(지구에 가까움)에서 빠르게 이동하고, 원지점(지구에서 멀음)에서 느리게 이동합니다. 각운동량이 보존되기 때문입니다.</p>
      <div class="code-box">
각운동량 L = m × v × r = 일정

근지점 속도: v_p = √(GM × (1+e) / (a(1-e)))
원지점 속도: v_a = √(GM × (1-e) / (a(1+e)))
      </div>
    </div>

    <h3>제3법칙: 조화의 법칙</h3>

    <p>행성(위성)의 공전 주기의 제곱은 궤도 장반경의 세제곱에 비례합니다.</p>

    <div class="code-box">
T² = (4π² / GM) × a³

정리하면:
T = 2π√(a³ / GM)

예시: GEO 위성 (a = 42,164 km)
T = 2π√(42,164³×10⁹ / (6.674×10⁻¹¹ × 5.972×10²⁴))
T ≈ 86,164 초 = 23시간 56분 4초 (항성일)
    </div>

    <p>이 법칙으로 궤도 고도와 주기의 관계를 알 수 있습니다:</p>

    <table>
      <thead>
        <tr>
          <th>궤도</th>
          <th>고도</th>
          <th>주기</th>
        </tr>
      </thead>
      <tbody>
        <tr>
          <td>LEO (ISS)</td>
          <td>400 km</td>
          <td>92.7 분</td>
        </tr>
        <tr>
          <td>LEO (Starlink)</td>
          <td>550 km</td>
          <td>95.6 분</td>
        </tr>
        <tr>
          <td>MEO (GPS)</td>
          <td>20,200 km</td>
          <td>11.97 시간</td>
        </tr>
        <tr>
          <td>GEO</td>
          <td>35,786 km</td>
          <td>23.93 시간</td>
        </tr>
      </tbody>
    </table>

    <h2>5.3 궤도 요소 (Orbital Elements)</h2>

    <p>위성의 궤도는 6개의 케플러 궤도 요소로 완전히 정의됩니다. 이를 알면 언제 어디서든 위성의 위치를 계산할 수 있습니다.</p>

    <h3>6개 궤도 요소</h3>

    <table>
      <thead>
        <tr>
          <th>요소</th>
          <th>기호</th>
          <th>설명</th>
        </tr>
      </thead>
      <tbody>
        <tr>
          <td>장반경</td>
          <td>a</td>
          <td>궤도 크기 (km)</td>
        </tr>
        <tr>
          <td>이심률</td>
          <td>e</td>
          <td>궤도 모양 (0~1)</td>
        </tr>
        <tr>
          <td>궤도 경사각</td>
          <td>i</td>
          <td>적도면과 궤도면의 각도 (0~180도)</td>
        </tr>
        <tr>
          <td>승교점 적경</td>
          <td>Ω</td>
          <td>궤도면의 회전각 (0~360도)</td>
        </tr>
        <tr>
          <td>근지점 편각</td>
          <td>ω</td>
          <td>타원의 회전각 (0~360도)</td>
        </tr>
        <tr>
          <td>평균 근점 이각</td>
          <td>M</td>
          <td>위성의 현재 위치 (0~360도)</td>
        </tr>
      </tbody>
    </table>

    <div class="info-box">
      <h4>궤도 경사각 (Inclination)</h4>
      <p>궤도 경사각은 위성이 커버하는 위도 범위를 결정합니다:</p>
      <ul>
        <li><strong>i = 0도:</strong> 적도 궤도 - 적도만 커버</li>
        <li><strong>i = 28.5도:</strong> 케이프 커내버럴 발사 - 위도 28.5도까지 커버</li>
        <li><strong>i = 51.6도:</strong> ISS 궤도 - 러시아 발사장 고려</li>
        <li><strong>i = 90도:</strong> 극궤도 - 전 지구 커버</li>
        <li><strong>i = 98도:</strong> 태양동기 궤도 (역행 궤도)</li>
      </ul>
    </div>

    <h3>Two-Line Element Set (TLE)</h3>

    <p>궤도 요소는 TLE 형식으로 표준화하여 공유됩니다. NORAD가 모든 추적 가능한 물체의 TLE를 공개합니다.</p>

    <div class="code-box">
TLE 예시: 국제우주정거장 (ISS)

ISS (ZARYA)
1 25544U 98067A   21001.00000000  .00002182  00000-0  41420-4 0  9990
2 25544  51.6461 339.8014 0002571  34.5857 120.4689 15.48919393123456

Line 1:
- 위성 번호: 25544
- 분류: U (비기밀)
- 발사 연도/번호: 98067A
- Epoch: 2021년 1일
- 1차 미분 평균 운동: .00002182
- B* 드래그: 41420×10⁻⁴

Line 2:
- 경사각: 51.6461도
- 승교점 적경: 339.8014도
- 이심률: 0.0002571
- 근지점 편각: 34.5857도
- 평균 근점 이각: 120.4689도
- 평균 운동: 15.48919393 rev/day
    </div>

    <p>이 TLE를 SGP4 모델에 입력하면 ISS의 위치를 1~2km 정확도로 예측할 수 있습니다.</p>

    <h2>5.4 궤도 섭동 (Orbital Perturbations)</h2>

    <p>실제 위성 궤도는 완벽한 케플러 궤도가 아닙니다. 여러 섭동력이 궤도를 교란합니다.</p>

    <h3>주요 섭동력</h3>

    <h4>1. 지구 편평도 (J2 섭동)</h4>

    <p>지구는 완벽한 구가 아니라 적도가 볼록한 타원체입니다. 이로 인한 중력 불균형이 가장 큰 섭동력입니다.</p>

    <div class="info-box">
      <h4>J2 효과</h4>
      <ul>
        <li><strong>승교점 세차 (Nodal Precession):</strong> 궤도면이 서쪽으로 회전 (극궤도의 경우 하루 약 1도)</li>
        <li><strong>근지점 회전 (Apsidal Rotation):</strong> 타원 궤도의 근지점이 회전</li>
        <li><strong>태양동기 궤도:</strong> J2 섭동을 역이용하여 궤도면이 태양을 향해 약 1도/일 회전하도록 설계</li>
      </ul>
      <div class="code-box">
태양동기 조건: 경사각 약 98도 (역행 궤도)
하루 세차각: 360도 / 365.25일 ≈ 0.9856도/일
      </div>
    </div>

    <h4>2. 대기 저항 (Atmospheric Drag)</h4>

    <p>LEO 위성은 미세한 대기와 마찰하여 에너지를 잃고 고도가 낮아집니다.</p>

    <table>
      <thead>
        <tr>
          <th>고도</th>
          <th>대기 밀도</th>
          <th>궤도 수명</th>
        </tr>
      </thead>
      <tbody>
        <tr>
          <td>200 km</td>
          <td>10⁻⁹ kg/m³</td>
          <td>수 일</td>
        </tr>
        <tr>
          <td>400 km (ISS)</td>
          <td>10⁻¹¹ kg/m³</td>
          <td>수 개월 (부스팅 필요)</td>
        </tr>
        <tr>
          <td>600 km</td>
          <td>10⁻¹² kg/m³</td>
          <td>수십 년</td>
        </tr>
        <tr>
          <td>800 km</td>
          <td>10⁻¹³ kg/m³</td>
          <td>100년 이상</td>
        </tr>
        <tr>
          <td>1000 km</td>
          <td>10⁻¹⁴ kg/m³</td>
          <td>수천 년</td>
        </tr>
      </tbody>
    </table>

    <div class="warning-box">
      <h4>⚠️ 우주 쓰레기 문제</h4>
      <p>800km 이상 고도에서는 대기 저항이 거의 없어 위성이 수백 년간 궤도에 남습니다. 따라서 임무 종료 후 궤도 이탈(de-orbit) 절차가 중요합니다. 25년 규칙: 임무 종료 후 25년 이내에 재진입 또는 묘지 궤도로 이동해야 합니다.</p>
    </div>

    <h4>3. 태양 복사압 (Solar Radiation Pressure)</h4>

    <p>태양 광자가 위성 표면에 충돌하여 압력을 가합니다. 태양전지판이 큰 위성일수록 영향이 큽니다.</p>

    <div class="code-box">
태양 복사압: P ≈ 4.5 × 10⁻⁶ N/m² (지구 궤도)

면적 10m² 위성에 대한 힘: F ≈ 4.5 × 10⁻⁵ N

작은 힘이지만 시간이 지나면 누적되어 궤도에 영향을 줍니다.
    </div>

    <h4>4. 달과 태양의 중력 (Third-body Perturbations)</h4>

    <p>달과 태양의 중력도 위성 궤도에 영향을 줍니다. 특히 GEO와 HEO 위성에 중요합니다.</p>

    <h4>5. 중력장 불균일 (Gravitational Anomalies)</h4>

    <p>지구 내부 질량 분포가 불균일하여 지역마다 중력이 다릅니다. 정밀 궤도 결정 시 고려해야 합니다.</p>

    <h2>5.5 궤도 기동 (Orbital Maneuvers)</h2>

    <p>위성은 추진계를 사용하여 궤도를 변경할 수 있습니다. 기동의 기본은 호만 전이 (Hohmann Transfer)입니다.</p>

    <h3>호만 전이</h3>

    <p>두 원궤도 사이를 가장 연료 효율적으로 이동하는 방법입니다.</p>

    <div class="info-box">
      <h4>호만 전이 절차</h4>
      <ol>
        <li>현재 궤도에서 근지점에서 속도 증가 (ΔV₁) → 타원 전이 궤도 진입</li>
        <li>타원 궤도를 따라 이동</li>
        <li>목표 고도 (원지점)에서 다시 속도 증가 (ΔV₂) → 새 원궤도 진입</li>
      </ol>
      <div class="code-box">
필요한 총 속도 변화:
ΔV_total = ΔV₁ + ΔV₂

예시: LEO (400km) → GEO (35,786km)
ΔV₁ ≈ 2.44 km/s
ΔV₂ ≈ 1.47 km/s
ΔV_total ≈ 3.91 km/s
      </div>
    </div>

    <h3>궤도 경사각 변경</h3>

    <p>궤도 경사각을 변경하는 것은 매우 많은 연료가 필요합니다. 따라서 발사 시 목표 경사각에 맞춰 발사하는 것이 중요합니다.</p>

    <div class="code-box">
경사각 변경에 필요한 ΔV:
ΔV = 2 × V × sin(Δi / 2)

여기서:
- V: 궤도 속도
- Δi: 변경할 경사각

예시: LEO (7.7 km/s), 경사각 10도 변경
ΔV = 2 × 7.7 × sin(5도) ≈ 1.34 km/s

이는 LEO→GEO 전이의 1/3에 해당하는 막대한 양입니다!
    </div>

    <h3>Station Keeping (정지 유지)</h3>

    <p>GEO 위성은 섭동으로 인해 궤도가 이탈하므로, 주기적으로 보정이 필요합니다.</p>

    <ul>
      <li><strong>동서 방향 유지:</strong> 타원도 증가 방지. 년 2~4회 기동, ΔV ≈ 2 m/s/year</li>
      <li><strong>남북 방향 유지:</strong> 경사각 증가 방지 (달/태양 섭동). ΔV ≈ 50 m/s/year</li>
      <li><strong>총 연료 필요량:</strong> 15년 운용 시 약 800 m/s</li>
    </ul>

    <h2>5.6 재진입 역학 (Reentry Dynamics)</h2>

    <p>임무 종료 후 위성은 대기로 재진입하여 소멸됩니다. 제어되지 않은 재진입은 지상에 위험할 수 있으므로, 제어 재진입이 권장됩니다.</p>

    <h3>재진입 과정</h3>

    <ol>
      <li><strong>궤도 이탈 기동:</strong> 근지점을 100km 이하로 낮춤</li>
      <li><strong>고도 100km 진입:</strong> 대기 저항 급증</li>
      <li><strong>가열 시작:</strong> 마찰열로 표면 온도 수천 도 상승</li>
      <li><strong>해체:</strong> 대부분 부품이 연소되어 소멸</li>
      <li><strong>잔해 낙하:</strong> 일부 내열성 부품이 지상까지 도달</li>
    </ol>

    <div class="info-box">
      <h4>제어 재진입 (Controlled Reentry)</h4>
      <p>대형 위성이나 우주정거장은 제어 재진입을 수행합니다. 추진계로 재진입 시점과 장소를 정밀하게 제어하여, 잔해가 무인 지역(대양)에 떨어지도록 합니다.</p>
      <p>예시:</p>
      <ul>
        <li><strong>Skylab:</strong> 1979년 제어 실패로 호주 낙하</li>
        <li><strong>Mir:</strong> 2001년 제어 재진입으로 태평양 낙하 성공</li>
        <li><strong>Tiangong-1:</strong> 2018년 제어 불능 재진입으로 남태평양 낙하</li>
      </ul>
    </div>

    <h2>5.7 우주 쓰레기 회피 (Debris Avoidance)</h2>

    <p>지구 궤도에는 수십만 개의 우주 쓰레기가 있습니다. 위성은 충돌을 피해야 합니다.</p>

    <h3>우주 쓰레기 현황</h3>

